1 20253U 89077A   26118.45855764 -.00000375  00000-0  00000+0 0  9990
2 20253  12.4357 351.4641 0006771  18.4424 137.1791  1.00279746260063
1 20776U 90079A   26116.78581043  .00000114  00000-0  00000-0 0  9995
2 20776  13.3569 350.1687 0002682  32.4888 148.3564  1.00269928130374
1 22787U 93056A   26119.85081108  .00000121  00000-0  00000+0 0  9992
2 22787  11.8777   3.8193 0009090 354.0867 194.9459  1.00266031118060
1 23467U 95003A   26119.62846605 -.00000024  00000-0  00000+0 0  9991
2 23467   9.7036  13.3920 0003383  22.7861 219.9609  1.00273750114467
1 23967U 96042A   26119.05378421 -.00000268  00000-0  00000-0 0  9994
2 23967  11.0730  17.3479 0008896 106.1326  76.9827  1.00230130108998
1 25544U 98067A   26119.68381909  .00007324  00000-0  14081-3 0  9996
2 25544  51.6318 180.1788 0007117   4.9077 355.1979 15.49024031564230
1 25967U 99063A   26119.52287561 -.00000189  00000-0  00000-0 0  9990
2 25967   9.8519  27.4675 0003713 341.2998  14.1961  1.00272272 96857
1 27168U 02001A   26118.90289609  .00000020  00000-0  00000+0 0  9999
2 27168  11.1226  22.2074 0100010   6.6749 171.9654  1.00269485 32463
1 27607U 02058C   26119.60224970  .00001351  00000-0  17631-3 0  9997
2 27607  64.5517 279.2922 0075609 271.2999  87.9446 14.82938270257254
1 28117U 03057A   26118.88716837 -.00000106  00000-0  00000-0 0  9998
2 28117   8.9377  34.0693 0002670 349.0324 228.5618  1.00272063 81956
1 28899U 05044A   26119.73933536 -.00000260  00000-0  00000+0 0  9995
2 28899   5.0344  43.7588 0002905 356.3547 227.1970  1.00271910 75032
1 30794U 07007B   26119.79274417 -.00000269  00000-0  00000+0 0  9994
2 30794   5.1792  74.3119 0004061 334.8648 189.2075  1.00271844 70210
1 32294U 07056B   26119.63621095  .00000141  00000-0  00000+0 0  9994
2 32294   5.1304  74.0653 0003904 317.1051  80.5382  1.00270566 67718
1 35943U 09054B   26119.85765777  .00000000  00000-0  00000+0 0  9992
2 35943   0.0232  88.0670 0003819 323.3888 178.1164  1.00271321 60829
1 36582U 10021B   26119.86364354  .00000000  00000-0  00000+0 0  9995
2 36582   0.0171 242.6897 0003018 173.5540 125.6318  1.00269386 58475
1 38098U 12011A   26119.85947778 -.00000059  00000-0  00000+0 0  9991
2 38098   0.0164 276.1599 0001911 138.9270 184.2384  1.00275382  6703
1 39034U 12075A   26119.85566442  .00000099  00000-0  00000+0 0  9990
2 39034   0.0734 336.9503 0003757  65.8695 175.7891  1.00272756 48678
1 39215U 13038A   26119.85011773  .00000133  00000-0  00000+0 0  9992
2 39215   2.9929   1.7263 0002487  67.7871 119.2006  1.00270216 43532
1 40296U 14069A   26118.83088856  .00000173  00000-0  00000+0 0  9995
2 40296  63.4467 220.2020 6666130 270.8821  19.3904  2.00585627 84246
1 40931U 15052B   25151.18580175  .00001241  00000-0  78118-4 0  9996
2 40931   6.0006  24.0987 0012733 338.8432  21.1169 14.78805930523159
1 43678U 18084H   26119.81730041  .00002888  00000-0  23583-3 0  9992
2 43678  98.1069 313.9651 0013000 336.8370  23.2265 15.00210983408961
1 43700U 18090A   26119.85029108  .00000145  00000-0  00000+0 0  9993
2 43700   0.0146 260.4867 0001667 171.2002 118.0588  1.00276635 27193
1 43803U 18099AX  26119.72321225  .00016844  00000-0  54500-3 0  9998
2 43803  97.4168 182.4394 0007269  89.0259 271.1816 15.32100201406206
1 44453U 19046A   26118.86779719 -.00000023  00000-0  00000+0 0  9997
2 44453  63.0816  57.1026 7061514 274.7245  14.9157  2.00611417 49352
1 44909U 19096E   26119.76726122  .00000021  00000-0  48007-4 0  9999
2 44909  82.5259  11.8820 0216383 257.5643 100.1169 12.79747978296156
1 45254U 20015A   26117.61988194 -.00000148  00000-0  00000-0 0  9995
2 45254  65.5235 324.3485 6873805 278.7753  14.8434  2.00601738 45272
1 52145U 22030A   26119.12155902  .00000235  00000-0  00000-0 0  9998
2 52145  62.6752 146.0463 6771250 272.9004  17.7343  2.00616559 30049
1 57167U 23091B   26010.59363612  .08733485  25619-5  12458-2 0  9993
2 57167  97.4978  91.1570 0009532 282.8011  77.2220 16.34765267141469
1 59112U 24043Q   26119.35594964  .00032074  00000-0  47413-3 0  9993
2 59112  97.5476 266.9101 0006557  26.9838 333.1755 15.55243525120290
1 67291U 25313AV  26119.74388948  .00014142  00000-0  56834-3 0  9990
2 67291  97.3951 195.5038 0010106 158.2367 201.9302 15.24995892 18608
1 26635U 00080A   21013.46269075 0.00000000  00000-0  00000-0 0    09
2 26635   9.2857  29.8038 0014383 186.3086 173.6859  1.00273100    09
1 34810U 09020A   25358.93258989 0.00000000  00000-0  00000-0 0    06
2 34810   2.7881  81.1408 0004972 246.2147 113.7417  1.00270000    08
1 40614U 15022B   25359.93496764 0.00000000  00000-0  00000-0 0    00
2 40614   0.0160 108.2839 0003453 352.8976   7.0980  1.00270000    04
